TYVAK-182A              
1 48271U 21034D   25112.11826331  .00010662  00000+0  84367-3 0  9993
2 48271  97.6136 173.4960 0003403  10.7081 349.4215 15.00789249216566
CSS (TIANHE)            
1 48274U 21035A   25111.74750141  .00049076  00000+0  54428-3 0  9996
2 48274  41.4658   4.0178 0004649 216.9437 143.1082 15.62101322227339
TYVAK-0130              
1 48606U 21041BF  25112.41159953  .00012338  00000+0  57782-3 0  9998
2 48606  53.0286 168.1575 0009749 312.4816  47.5354 15.20069876216233
HAIYANG-2D              
1 48621U 21043A   25112.60913224  .00000010  00000+0  82864-4 0  9991
2 48621  65.9968 271.7929 0008023 261.1825  98.8335 13.83373326198374
2021-050D               
1 48843U 21050D   25112.57300524  .00011853  00000+0  50765-3 0  9995
2 48843  97.3691 192.0366 0007310 183.0639 177.0554 15.22909463214920
BRIK-II                 
1 48876U 21058F   25112.42916544  .00064843  00000+0  80902-3 0  9991
2 48876  60.6648 350.6661 0005037 127.0819 233.0746 15.59430747212864
TYVAK-0173              
1 48892U 21059P   25112.45800475  .00004207  00000+0  56696-3 0  9999
2 48892  95.9839 289.3820 0010154  25.6618 334.5100 14.79463944205988
TUBIN                   
1 48900U 21059X   25112.62927190  .00058232  00000+0  83902-3 0  9999
2 48900  97.6730 278.1315 0002866  69.2022 290.9538 15.55834323212577
MANDRAKE 2 ABLE         
1 48907U 21059AE  25112.41561953  .00023073  00000+0  61422-3 0  9992
2 48907  97.6834 271.5408 0007091  87.3835 272.8220 15.38187930212121
MANDRAKE 2 BAKER        
1 48908U 21059AF  25112.40925854  .00027033  00000+0  68375-3 0  9990
2 48908  97.6844 272.5428 0005854  73.3526 286.8361 15.39735923212171
PACE-1                  
1 48909U 21059AG  25112.44083958  .00032380  00000+0  70743-3 0  9998
2 48909  97.6739 272.8473 0005456  70.8753 289.3085 15.44111443212307
YAM-2                   
1 48911U 21059AJ  25112.45215223  .00110331  00000+0  99690-3 0  9999
2 48911  97.6696 283.0821 0001524  38.3762 321.7607 15.67766724212858
YAM-3                   
1 48915U 21059AN  25112.43485354  .00018113  00000+0  50354-3 0  9994
2 48915  97.6781 271.2794 0007637  74.2872 285.9214 15.36890071212132
FARADAY_PHOENIX         
1 48924U 21059AX  25112.43633377  .00025480  00000+0  60027-3 0  9997
2 48924  97.6808 275.2338 0009755  61.6571 298.5658 15.41872030212345
DEMO8 (TENZING)         
1 48951U 21059CA  25112.40601277  .00022524  00000+0  58513-3 0  9991
2 48951  97.6877 274.7734 0010482  76.9171 283.3243 15.38915037212285
ASTROCAST-0201          
1 48954U 21059CD  25112.39091365  .00049775  00000+0  84065-3 0  9991
2 48954  97.6538 277.6605 0006779  92.9048 267.2980 15.51451106212619
ASTROCAST-0203          
1 48955U 21059CE  25112.40946835  .00054495  00000+0  91664-3 0  9993
2 48955  97.6552 277.2109 0005991  80.7594 279.4335 15.51549601212614
ASTROCAST-0205          
1 48960U 21059CK  25112.43319573  .00051300  00000+0  87330-3 0  9992
2 48960  97.6519 277.5231 0006977  40.3484 319.8284 15.51219356212621
NAPA-2                  
1 48963U 21059CN  25112.58615811  .00034856  00000+0  76042-3 0  9990
2 48963  97.6739 271.9712 0006815  71.6213 288.5775 15.44130588212211
W-CUBE                  
1 48965U 21059CQ  25112.43760606  .00094547  00000+0  10508-2 0  9996
2 48965  97.6681 279.4191 0002559  31.8121 328.3290 15.62584403212630
JILIN-1 GAOFEN 3D01     
1 49004U 21061B   25112.57574365  .00054411  00000+0  10061-2 0  9994
2 49004  97.3502 185.0859 0009748  47.2404 312.9665 15.48827199211189
JILIN-1 GAOFEN 3D03     
1 49006U 21061D   25112.56849275  .00034234  00000+0  86721-3 0  9998
2 49006  97.3477 177.8149 0008286 168.4467 191.6971 15.39618902210714
XINGSHIDAI 10           
1 49007U 21061E   25112.58338981  .00034884  00000+0  89298-3 0  9991
2 49007  97.3469 177.8608 0008015 156.7942 203.3667 15.39296702210717
FENGYUN 3E              
1 49008U 21062A   25112.57681001  .00000058  00000+0  48124-4 0  9996
2 49008  98.7431 115.8878 0001188 174.5058 185.6132 14.19860038196890
ISS (NAUKA)             
1 49044U 21066A   25112.63525738  .00022335  00000+0  40015-3 0  9993
2 49044  51.6371 222.1801 0005520  66.0598  66.1683 15.49851001212467
LEDSAT                  
1 49069U 21073D   25112.18513209  .00080940  00000+0  12374-2 0  9990
2 49069  97.3913 191.9332 0011214 244.5173 115.4921 15.54052536203908
STARLINK-3100           
1 49144U 21082Q   25112.18542347  .00010037  00000+0  84698-3 0  9998
2 49144  70.0028  25.0735 0002412 264.5607  95.5277 14.98366300197824
CUTE                    
1 49263U 21088D   25112.20334724  .00026704  00000+0  56600-3 0  9997
2 49263  97.4534 187.1186 0009256  65.6510 294.5704 15.45014959196959
2021-091B               
1 49316U 21091B   25112.58748077  .00005998  00000+0  29069-3 0  9992
2 49316  97.4523 301.5873 0013119   1.4066 358.7203 15.18830168195165
2021-091H               
1 49322U 21091H   25112.58872613  .00416501  71521-4  10645-2 0  9999
2 49322  97.3991 326.9265 0000593 314.6262  45.4966 15.95339718196926
SDGSAT 1                
1 49387U 21100A   25112.57774855  .00006015  00000+0  28719-3 0  9995
2 49387  97.3192 168.7127 0006489   3.6727 356.4555 15.19393181192048
TEIKYOSAT-4 (OORURI)    
1 49396U 21102B   25112.16329229  .00003537  00000+0  23749-3 0  9997
2 49396  97.4160 152.3333 0010866 304.2223  55.7975 15.07391403189253
Z-SAT                   
1 49399U 21102E   25112.57561282  .00006904  00000+0  38345-3 0  9991
2 49399  97.3860 155.5377 0016390 269.8515  90.0839 15.13917202189713
HIBARI                  
1 49400U 21102F   25112.59716876  .00013607  00000+0  59843-3 0  9991
2 49400  97.3826 159.8263 0012953 243.2776 116.7135 15.21921235190026
KOSEN-1                 
1 49402U 21102H   25112.54588415  .00011515  00000+0  54371-3 0  9991
2 49402  97.3764 158.5705 0014734 243.4233 116.5492 15.19498137189990
GLOBAL-14               
1 49469U 21106A   25112.55046611  .00024450  00000+0  72449-3 0  9994
2 49469  42.0015 233.5849 0008905 349.6801  10.3854 15.34308297193245
GAOFEN-3 02             
1 49495U 21109A   25112.54855122  .00000151  00000+0  59071-4 0  9999
2 49495  98.4132 121.5544 0002918 148.0839 212.0528 14.42210952179686
GLOBAL-12               
1 49772U 21115BA  25112.49091077  .00032533  00000+0  84976-3 0  9999
2 49772  53.1990 235.7973 0009209 308.5472  51.4707 15.38484722190944
GLOBAL-13               
1 49773U 21115BB  25111.74708416  .00032576  00000+0  84844-3 0  9990
2 49773  53.2018 240.5470 0009007 292.1100  67.8948 15.38574861190813
GLOBAL-17               
1 49949U 21120A   25111.71214256  .00025821  00000+0  74676-3 0  9999
2 49949  42.0005   0.6204 0004600 307.0400  53.0017 15.35074472189848
GLOBAL-16               
1 49950U 21120B   25112.00505284  .00026749  00000+0  77252-3 0  9991
2 49950  42.0012 358.4730 0003335 279.5082  80.5379 15.35108602189882
XW-3 (CAS-9)            
1 50466U 21131B   25112.56476436  .00001082  00000+0  35214-3 0  9999
2 50466  98.5083 202.1601 0002931 280.5030  79.5829 14.40740417174533
ION SCV-004             
1 50993U 22002K   25112.61160687  .00008362  00000+0  33630-3 0  9994
2 50993  97.3408 173.1752 0009487  54.2799 305.9320 15.25114633181080
IRIS-A                  
1 51044U 22002BN  25112.15996740  .00242860  00000+0  13686-2 0  9999
2 51044  97.3276 190.0269 0002658 251.8357 108.2620 15.78510372182200
ETV-A1                  
1 51060U 22002CE  25112.54175788  .00013835  00000+0  46792-3 0  9994
2 51060  97.3425 176.7458 0007682  63.5432 296.6596 15.30708105181292
BRO-5                   
1 51061U 22002CF  25112.60148533  .00014342  00000+0  42201-3 0  9995
2 51061  97.3488 180.6013 0007571  58.9719 301.2267 15.35154831181515
VZLUSAT-2               
1 51085U 22002DF  25112.52872515  .00054510  00000+0  89125-3 0  9993
2 51085  97.3368 184.2116 0005104  28.7266 331.4267 15.52350031181811
L-SAR 01A               
1 51284U 22007A   25112.47519029  .00001476  00000+0  16503-3 0  9994
2 51284  97.8094 120.9160 0001615  90.8660 269.2742 14.88427399175897
INSPIRESAT 1            
1 51657U 22013B   25112.03270003  .00039155  00000+0  90121-3 0  9996
2 51657  97.4977 140.1203 0008481 137.5036 222.6869 15.42493114176896
L-SAR 01B               
1 51822U 22018A   25112.57600002  .00001547  00000+0  17276-3 0  9994
2 51822  97.8112 120.9983 0001483  94.8228 265.3158 14.88420923171144
2022-019D               
1 51827U 22019D   25112.61664139  .00026247  00000+0  70659-3 0  9994
2 51827  97.3964 189.6107 0010098 212.5590 147.5033 15.37784768174536
JILIN-1 GAOFEN 03D14    
1 51831U 22019H   25112.56893108  .00036618  00000+0  95501-3 0  9999
2 51831  97.3982 191.8321 0010742 200.7988 159.2821 15.38687791174679
2022-019J               
1 51832U 22019J   25112.59462612  .00004422  00000+0  22093-3 0  9999
2 51832  97.3922 180.5734 0007481 253.9336 106.1075 15.17956585173948
JILIN-1 GAOFEN 03D16    
1 51834U 22019L   25112.58693935  .00035208  00000+0  88801-3 0  9999
2 51834  97.3956 192.2102 0007889 199.3912 160.7035 15.39749727174700
JILIN-1 GAOFEN 03D11    
1 51835U 22019M   25112.57739712  .00034881  00000+0  91595-3 0  9993
2 51835  97.3991 192.0505 0006277 213.9051 146.1793 15.38526298174683
JILIN-1 GAOFEN 03D17    
1 51838U 22019Q   25112.60278005  .00104217  00000+0  11612-2 0  9995
2 51838  97.3981 197.9701 0007463 192.6088 167.4985 15.62458811175084
JILIN-1 GAOFEN 03D15    
1 51839U 22019R   25112.59250086  .00031000  00000+0  84742-3 0  9997
2 51839  97.3965 191.5616 0004481 230.9848 129.0998 15.37316810174675
JILIN-1 GAOFEN 03D10    
1 51840U 22019S   25112.59064827  .00033748  00000+0  88590-3 0  9991
2 51840  97.3968 192.1745 0003227 137.0746 223.0751 15.38557980174703
JILIN-1 GAOFEN 03D12    
1 51841U 22019T   25112.61184661  .00030887  00000+0  84535-3 0  9990
2 51841  97.3953 191.5204 0005355 175.0502 185.0797 15.37275933174674
